STARLINK-36319          
1 67970U 26038K   26069.91670139 -.01534538  00000+0 -76778-2 0  9994
2 67970  97.2721  80.2820 0001459  84.9875 144.9295 15.84422083  3362
STARLINK-36710          
1 67971U 26038L   26069.91670139 -.01529757  00000+0 -75252-2 0  9998
2 67971  97.2714  80.2873 0001489  84.3702 157.3285 15.84765891  3396
STARLINK-36894          
1 67972U 26038M   26069.91670139 -.01529297  00000+0 -74670-2 0  9991
2 67972  97.2708  80.2894 0001416  82.5967 164.4124 15.84920745  3398
STARLINK-36900          
1 67973U 26038N   26069.91670139 -.01526529  00000+0 -73398-2 0  9993
2 67973  97.2704  80.2937 0001380  84.8572 172.7970 15.85234480  3396
STARLINK-36901          
1 67974U 26038P   26069.91670139 -.01526193  00000+0 -73966-2 0  9992
2 67974  97.2706  80.2911 0001447  82.0992 169.9472 15.85069029  3391
STARLINK-36883          
1 67975U 26038Q   26069.91670139 -.01519124  00000+0 -70772-2 0  9991
2 67975  97.2689  80.3027 0001313  87.0252 192.2805 15.85872418  3390
STARLINK-36880          
1 67976U 26038R   26069.91670139 -.01523814  00000+0 -72691-2 0  9995
2 67976  97.2700  80.2958 0001402  83.0576 180.0476 15.85392362  3395
STARLINK-36904          
1 67977U 26038S   26069.91670139 -.01520888  00000+0 -71418-2 0  9990
2 67977  97.2690  80.2997 0001380  86.9129 186.9608 15.85711994  3396
STARLINK-36364          
1 67978U 26038T   26069.91670139 -.01484099  00000+0 -69252-2 0  9997
2 67978  97.2679  80.3074 0001275  80.7557 211.3665 15.86253979  3392
STARLINK-36359          
1 67979U 26038U   26069.91670139 -.01520921  00000+0 -72074-2 0  9999
2 67979  97.2695  80.2969 0001323  84.0845 183.5493 15.85524847  3397
STARLINK-36882          
1 67980U 26038V   26069.91670139 -.01517288  00000+0 -69993-2 0  9999
2 67980  97.2682  80.3048 0001252  87.8554 198.1894 15.86072114  3396
STARLINK-36874          
1 67981U 26038W   26069.91670139 -.01482895  00000+0 -68748-2 0  9992
2 67981  97.2678  80.3093 0001348  83.2257 213.3137 15.86382470  3397
