CCSDS_OMM_VERS = 2.0
CREATION_DATE  = 
ORIGINATOR     = 

OBJECT_NAME    = STARLINK-36319
OBJECT_ID      = 2026-038K
CENTER_NAME    = EARTH
REF_FRAME      = TEME
TIME_SYSTEM    = UTC
MEAN_ELEMENT_THEORY = SGP/SGP4

EPOCH          = 2026-03-10T22:00:03.000096
MEAN_MOTION    = 15.84422083
ECCENTRICITY   = .00014593
INCLINATION    = 97.2721
RA_OF_ASC_NODE = 80.2820
ARG_OF_PERICENTER = 84.9875
MEAN_ANOMALY   = 144.9295

EPHEMERIS_TYPE = 0
CLASSIFICATION_TYPE = U
NORAD_CAT_ID   = 67970
ELEMENT_SET_NO = 999
REV_AT_EPOCH   = 336
BSTAR          = -.76777777E-2
MEAN_MOTION_DOT = -.1534538E-1
MEAN_MOTION_DDOT = 0

CCSDS_OMM_VERS = 2.0
CREATION_DATE  = 
ORIGINATOR     = 

OBJECT_NAME    = STARLINK-36710
OBJECT_ID      = 2026-038L
CENTER_NAME    = EARTH
REF_FRAME      = TEME
TIME_SYSTEM    = UTC
MEAN_ELEMENT_THEORY = SGP/SGP4

EPOCH          = 2026-03-10T22:00:03.000096
MEAN_MOTION    = 15.84765891
ECCENTRICITY   = .00014892
INCLINATION    = 97.2714
RA_OF_ASC_NODE = 80.2873
ARG_OF_PERICENTER = 84.3702
MEAN_ANOMALY   = 157.3285

EPHEMERIS_TYPE = 0
CLASSIFICATION_TYPE = U
NORAD_CAT_ID   = 67971
ELEMENT_SET_NO = 999
REV_AT_EPOCH   = 339
BSTAR          = -.75251656E-2
MEAN_MOTION_DOT = -.1529757E-1
MEAN_MOTION_DDOT = 0

CCSDS_OMM_VERS = 2.0
CREATION_DATE  = 
ORIGINATOR     = 

OBJECT_NAME    = STARLINK-36894
OBJECT_ID      = 2026-038M
CENTER_NAME    = EARTH
REF_FRAME      = TEME
TIME_SYSTEM    = UTC
MEAN_ELEMENT_THEORY = SGP/SGP4

EPOCH          = 2026-03-10T22:00:03.000096
MEAN_MOTION    = 15.84920745
ECCENTRICITY   = .00014168
INCLINATION    = 97.2708
RA_OF_ASC_NODE = 80.2894
ARG_OF_PERICENTER = 82.5967
MEAN_ANOMALY   = 164.4124

EPHEMERIS_TYPE = 0
CLASSIFICATION_TYPE = U
NORAD_CAT_ID   = 67972
ELEMENT_SET_NO = 999
REV_AT_EPOCH   = 339
BSTAR          = -.74670007E-2
MEAN_MOTION_DOT = -.1529297E-1
MEAN_MOTION_DDOT = 0

CCSDS_OMM_VERS = 2.0
CREATION_DATE  = 
ORIGINATOR     = 

OBJECT_NAME    = STARLINK-36900
OBJECT_ID      = 2026-038N
CENTER_NAME    = EARTH
REF_FRAME      = TEME
TIME_SYSTEM    = UTC
MEAN_ELEMENT_THEORY = SGP/SGP4

EPOCH          = 2026-03-10T22:00:03.000096
MEAN_MOTION    = 15.85234480
ECCENTRICITY   = .00013807
INCLINATION    = 97.2704
RA_OF_ASC_NODE = 80.2937
ARG_OF_PERICENTER = 84.8572
MEAN_ANOMALY   = 172.7970

EPHEMERIS_TYPE = 0
CLASSIFICATION_TYPE = U
NORAD_CAT_ID   = 67973
ELEMENT_SET_NO = 999
REV_AT_EPOCH   = 339
BSTAR          = -.73397838E-2
MEAN_MOTION_DOT = -.1526529E-1
MEAN_MOTION_DDOT = 0

CCSDS_OMM_VERS = 2.0
CREATION_DATE  = 
ORIGINATOR     = 

OBJECT_NAME    = STARLINK-36901
OBJECT_ID      = 2026-038P
CENTER_NAME    = EARTH
REF_FRAME      = TEME
TIME_SYSTEM    = UTC
MEAN_ELEMENT_THEORY = SGP/SGP4

EPOCH          = 2026-03-10T22:00:03.000096
MEAN_MOTION    = 15.85069029
ECCENTRICITY   = .00014471
INCLINATION    = 97.2706
RA_OF_ASC_NODE = 80.2911
ARG_OF_PERICENTER = 82.0992
MEAN_ANOMALY   = 169.9472

EPHEMERIS_TYPE = 0
CLASSIFICATION_TYPE = U
NORAD_CAT_ID   = 67974
ELEMENT_SET_NO = 999
REV_AT_EPOCH   = 339
BSTAR          = -.73965832E-2
MEAN_MOTION_DOT = -.1526193E-1
MEAN_MOTION_DDOT = 0

CCSDS_OMM_VERS = 2.0
CREATION_DATE  = 
ORIGINATOR     = 

OBJECT_NAME    = STARLINK-36883
OBJECT_ID      = 2026-038Q
CENTER_NAME    = EARTH
REF_FRAME      = TEME
TIME_SYSTEM    = UTC
MEAN_ELEMENT_THEORY = SGP/SGP4

EPOCH          = 2026-03-10T22:00:03.000096
MEAN_MOTION    = 15.85872418
ECCENTRICITY   = .00013131
INCLINATION    = 97.2689
RA_OF_ASC_NODE = 80.3027
ARG_OF_PERICENTER = 87.0252
MEAN_ANOMALY   = 192.2805

EPHEMERIS_TYPE = 0
CLASSIFICATION_TYPE = U
NORAD_CAT_ID   = 67975
ELEMENT_SET_NO = 999
REV_AT_EPOCH   = 339
BSTAR          = -.70772229E-2
MEAN_MOTION_DOT = -.1519124E-1
MEAN_MOTION_DDOT = 0

CCSDS_OMM_VERS = 2.0
CREATION_DATE  = 
ORIGINATOR     = 

OBJECT_NAME    = STARLINK-36880
OBJECT_ID      = 2026-038R
CENTER_NAME    = EARTH
REF_FRAME      = TEME
TIME_SYSTEM    = UTC
MEAN_ELEMENT_THEORY = SGP/SGP4

EPOCH          = 2026-03-10T22:00:03.000096
MEAN_MOTION    = 15.85392362
ECCENTRICITY   = .00014029
INCLINATION    = 97.2700
RA_OF_ASC_NODE = 80.2958
ARG_OF_PERICENTER = 83.0576
MEAN_ANOMALY   = 180.0476

EPHEMERIS_TYPE = 0
CLASSIFICATION_TYPE = U
NORAD_CAT_ID   = 67976
ELEMENT_SET_NO = 999
REV_AT_EPOCH   = 339
BSTAR          = -.72691328E-2
MEAN_MOTION_DOT = -.1523814E-1
MEAN_MOTION_DDOT = 0

CCSDS_OMM_VERS = 2.0
CREATION_DATE  = 
ORIGINATOR     = 

OBJECT_NAME    = STARLINK-36904
OBJECT_ID      = 2026-038S
CENTER_NAME    = EARTH
REF_FRAME      = TEME
TIME_SYSTEM    = UTC
MEAN_ELEMENT_THEORY = SGP/SGP4

EPOCH          = 2026-03-10T22:00:03.000096
MEAN_MOTION    = 15.85711994
ECCENTRICITY   = .00013802
INCLINATION    = 97.2690
RA_OF_ASC_NODE = 80.2997
ARG_OF_PERICENTER = 86.9129
MEAN_ANOMALY   = 186.9608

EPHEMERIS_TYPE = 0
CLASSIFICATION_TYPE = U
NORAD_CAT_ID   = 67977
ELEMENT_SET_NO = 999
REV_AT_EPOCH   = 339
BSTAR          = -.7141776E-2
MEAN_MOTION_DOT = -.1520888E-1
MEAN_MOTION_DDOT = 0

CCSDS_OMM_VERS = 2.0
CREATION_DATE  = 
ORIGINATOR     = 

OBJECT_NAME    = STARLINK-36364
OBJECT_ID      = 2026-038T
CENTER_NAME    = EARTH
REF_FRAME      = TEME
TIME_SYSTEM    = UTC
MEAN_ELEMENT_THEORY = SGP/SGP4

EPOCH          = 2026-03-10T22:00:03.000096
MEAN_MOTION    = 15.86253979
ECCENTRICITY   = .00012752
INCLINATION    = 97.2679
RA_OF_ASC_NODE = 80.3074
ARG_OF_PERICENTER = 80.7557
MEAN_ANOMALY   = 211.3665

EPHEMERIS_TYPE = 0
CLASSIFICATION_TYPE = U
NORAD_CAT_ID   = 67978
ELEMENT_SET_NO = 999
REV_AT_EPOCH   = 339
BSTAR          = -.69251671E-2
MEAN_MOTION_DOT = -.1484099E-1
MEAN_MOTION_DDOT = 0

CCSDS_OMM_VERS = 2.0
CREATION_DATE  = 
ORIGINATOR     = 

OBJECT_NAME    = STARLINK-36359
OBJECT_ID      = 2026-038U
CENTER_NAME    = EARTH
REF_FRAME      = TEME
TIME_SYSTEM    = UTC
MEAN_ELEMENT_THEORY = SGP/SGP4

EPOCH          = 2026-03-10T22:00:03.000096
MEAN_MOTION    = 15.85524847
ECCENTRICITY   = .00013236
INCLINATION    = 97.2695
RA_OF_ASC_NODE = 80.2969
ARG_OF_PERICENTER = 84.0845
MEAN_ANOMALY   = 183.5493

EPHEMERIS_TYPE = 0
CLASSIFICATION_TYPE = U
NORAD_CAT_ID   = 67979
ELEMENT_SET_NO = 999
REV_AT_EPOCH   = 339
BSTAR          = -.72073946E-2
MEAN_MOTION_DOT = -.1520921E-1
MEAN_MOTION_DDOT = 0

CCSDS_OMM_VERS = 2.0
CREATION_DATE  = 
ORIGINATOR     = 

OBJECT_NAME    = STARLINK-36882
OBJECT_ID      = 2026-038V
CENTER_NAME    = EARTH
REF_FRAME      = TEME
TIME_SYSTEM    = UTC
MEAN_ELEMENT_THEORY = SGP/SGP4

EPOCH          = 2026-03-10T22:00:03.000096
MEAN_MOTION    = 15.86072114
ECCENTRICITY   = .00012523
INCLINATION    = 97.2682
RA_OF_ASC_NODE = 80.3048
ARG_OF_PERICENTER = 87.8554
MEAN_ANOMALY   = 198.1894

EPHEMERIS_TYPE = 0
CLASSIFICATION_TYPE = U
NORAD_CAT_ID   = 67980
ELEMENT_SET_NO = 999
REV_AT_EPOCH   = 339
BSTAR          = -.69993245E-2
MEAN_MOTION_DOT = -.1517288E-1
MEAN_MOTION_DDOT = 0

CCSDS_OMM_VERS = 2.0
CREATION_DATE  = 
ORIGINATOR     = 

OBJECT_NAME    = STARLINK-36874
OBJECT_ID      = 2026-038W
CENTER_NAME    = EARTH
REF_FRAME      = TEME
TIME_SYSTEM    = UTC
MEAN_ELEMENT_THEORY = SGP/SGP4

EPOCH          = 2026-03-10T22:00:03.000096
MEAN_MOTION    = 15.86382470
ECCENTRICITY   = .00013487
INCLINATION    = 97.2678
RA_OF_ASC_NODE = 80.3093
ARG_OF_PERICENTER = 83.2257
MEAN_ANOMALY   = 213.3137

EPHEMERIS_TYPE = 0
CLASSIFICATION_TYPE = U
NORAD_CAT_ID   = 67981
ELEMENT_SET_NO = 999
REV_AT_EPOCH   = 339
BSTAR          = -.68748339E-2
MEAN_MOTION_DOT = -.1482895E-1
MEAN_MOTION_DDOT = 0

